HULIANWANG DIGUI 14J    
1 66923U 25285J   25343.85620469  .00000250  00000+0  24345-3 0  9992
2 66923  50.0075 129.0309 0005381 286.5965  73.4349 14.06054934   508
CZ-8A R/B               
1 66924U 25285K   25343.79710397  .00000137  00000+0  10749-3 0  9993
2 66924  50.0059 128.6808 0119321  96.3661 265.0859 14.30500210   505
