CCSDS_OMM_VERS = 2.0
CREATION_DATE  = 
ORIGINATOR     = 

OBJECT_NAME    = HULIANWANG DIGUI 14J
OBJECT_ID      = 2025-285J
CENTER_NAME    = EARTH
REF_FRAME      = TEME
TIME_SYSTEM    = UTC
MEAN_ELEMENT_THEORY = SGP/SGP4

EPOCH          = 2025-12-09T20:32:56.085216
MEAN_MOTION    = 14.06054934
ECCENTRICITY   = .0005381
INCLINATION    = 50.0075
RA_OF_ASC_NODE = 129.0309
ARG_OF_PERICENTER = 286.5965
MEAN_ANOMALY   = 73.4349

EPHEMERIS_TYPE = 0
CLASSIFICATION_TYPE = U
NORAD_CAT_ID   = 66923
ELEMENT_SET_NO = 999
REV_AT_EPOCH   = 50
BSTAR          = .24345E-3
MEAN_MOTION_DOT = .25E-5
MEAN_MOTION_DDOT = 0

CCSDS_OMM_VERS = 2.0
CREATION_DATE  = 
ORIGINATOR     = 

OBJECT_NAME    = CZ-8A R/B
OBJECT_ID      = 2025-285K
CENTER_NAME    = EARTH
REF_FRAME      = TEME
TIME_SYSTEM    = UTC
MEAN_ELEMENT_THEORY = SGP/SGP4

EPOCH          = 2025-12-09T19:07:49.783008
MEAN_MOTION    = 14.30500210
ECCENTRICITY   = .0119321
INCLINATION    = 50.0059
RA_OF_ASC_NODE = 128.6808
ARG_OF_PERICENTER = 96.3661
MEAN_ANOMALY   = 265.0859

EPHEMERIS_TYPE = 0
CLASSIFICATION_TYPE = U
NORAD_CAT_ID   = 66924
ELEMENT_SET_NO = 999
REV_AT_EPOCH   = 50
BSTAR          = .10749E-3
MEAN_MOTION_DOT = .137E-5
MEAN_MOTION_DDOT = 0

